[{"line1":"1 04711U 70089S   22221.54122133  .00000512  00000-0  25576-3 0  9993","line2":"2 04711  63.1364 232.7030 0758909   1.0139 359.2213 13.30117587467005"},{"line1":"1 04712U 70091T   22221.44428506  .00001860  00000-0  50921-3 0  9998","line2":"2 04712  62.7884 178.9912 0524266 316.5358  39.5455 13.91097170546604"},{"line1":"1 04715U 70025BZ  22221.50090376 -.00000182  00000-0 -13116-3 0  9998","line2":"2 04715  99.2390 299.0510 0035265 257.2105 173.3669 13.80684620619054"},{"line1":"1  4716U 70025CA  22221.47201557  .00001196  00000-0  85705-3 0  9997","line2":"2  4716 100.0074 220.4955 0012864 123.4194  39.5658 13.99378269628632"},{"line1":"1 04717U 70025CB  22221.33700784  .00000046  00000-0  13745-3 0  9997","line2":"2 04717 100.1840 245.4886 0003645 105.9861 267.0774 13.54408276582794"},{"line1":"1 04718U 70025CC  22221.50427497  .00000281  00000-0  20763-3 0  9993","line2":"2 04718 100.0080 164.3577 0105986  13.8175 346.5849 14.02138484656650"},{"line1":"1 04719U 70025CD  22221.18643872  .00000186  00000-0  16805-3 0  9991","line2":"2 04719  99.9105 144.3901 0125641 349.8316  10.0304 13.93905969646245"},{"line1":"1 04720U 70025CE  22221.21664324  .00001049  00000-0  71351-3 0  9998","line2":"2 04720 100.0598  15.9250 0085846 122.7231 238.2242 14.00860727653023"},{"line1":"1 04723U 70091U   22221.26508624  .00007316  00000-0  55506-3 0  9996","line2":"2 04723  62.7320 218.1462 0147711 214.4584 144.6867 14.94721392623347"},{"line1":"1 04724U 70091V   22221.33028103  .00000611  00000-0  17719-3 0  9999","line2":"2 04724  62.7918 349.2402 0487721 326.6495  30.4678 14.00946784560080"},{"line1":"1 04727U 70091Y   22221.09807677  .00001228  00000-0  32881-3 0  9998","line2":"2 04727  62.6984 119.2408 0491124 311.0410  44.9151 13.99302285554979"},{"line1":"1 04728U 70091Z   22221.50875198  .00001966  00000-0  50324-3 0  9999","line2":"2 04728  62.8888  47.4704 0760626 127.5614 239.7023 13.49787997486246"},{"line1":"1 04733U 70025CG  22221.52944508  .00001941  00000-0  45773-3 0  9991","line2":"2 04733  99.8789 320.9976 0121999 132.1404 229.0229 14.51305432700158"},{"line1":"1 04734U 70025CH  22220.78860663  .00000236  00000-0  25066-3 0  9997","line2":"2 04734 100.1189 170.1983 0084612  56.5462 304.3743 13.84093945627564"},{"line1":"1  4735U 70025CJ  22221.53041724  .00002934  00000-0  79400-3 0  9999","line2":"2  4735  99.6420 330.0242 0047611  39.7408 320.7253 14.47986192689427"},{"line1":"1  4736U 70025CK  22221.45769663  .00000316  00000-0  24052-3 0  9995","line2":"2  4736 100.0799  84.7621 0093176  20.0888 340.3902 14.00191378649877"},{"line1":"1 04737U 70025CL  22221.26420687  .00001711  00000-0  92350-3 0  9991","line2":"2 04737  99.0151 155.0169 0031623 152.2816 208.0050 14.13793773647406"},{"line1":"1 04738U 70025CM  22221.43173833  .00000881  00000-0  55617-3 0  9991","line2":"2 04738 100.1145  30.5932 0052608 138.0987 222.4222 14.06642736641742"},{"line1":"1  4739U 70025CN  22221.51259554  .00000986  00000-0  83193-3 0  9992","line2":"2  4739  99.9225 322.4631 0004623 168.2551 254.6756 13.90555201618387"},{"line1":"1 04741U 70025CQ  22221.27485366  .00000124  00000-0  85775-3 0  9992","line2":"2 04741 100.2540 236.1793 0788966 335.6196  35.4337 11.94246409281105"},{"line1":"1 04742U 70025CR  22221.34330675  .00000078  00000-0  18499-3 0  9990","line2":"2 04742 100.1801 240.9382 0019618   4.8037   7.7355 13.53750059579483"},{"line1":"1 04743U 70025CS  22221.34273473  .00000224  00000-0  37978-3 0  9999","line2":"2 04743 100.0550 259.9218 0035642 217.8339 206.1290 13.57053433582009"},{"line1":"1 04744U 70025CT  22221.38373603  .00000130  00000-0  25150-3 0  9995","line2":"2 04744 100.1025 192.2457 0016929 114.5075 245.7829 13.56376823584378"},{"line1":"1  4745U 70025CU  22221.72939362  .00000884  00000-0  72654-3 0  9991","line2":"2  4745 100.1223  49.3006 0029118 117.9641 242.4467 13.92285325625443"},{"line1":"1 04746U 70025CV  22221.31544122  .00028454  00000-0  33899-2 0  9993","line2":"2 04746  99.9783 165.1772 0008592  63.7890 296.4200 14.84253649678857"},{"line1":"1 04748U 70025CW  22221.27208887  .00000153  00000-0  25646-3 0  9993","line2":"2 04748  99.9864 332.2084 0006086  66.3964 293.7815 13.62751265591060"},{"line1":"1  4749U 70025CX  22221.49613578  .00000831  00000-0  82419-3 0  9999","line2":"2  4749  99.1197  87.9655 0014756 173.6774 186.4568 13.81168990609144"},{"line1":"1 04751U 70025CZ  22221.36379964  .00000728  00000-0  71444-3 0  9997","line2":"2 04751 100.1300 187.1915 0006178  92.7466 267.4392 13.82803603610635"},{"line1":"1 04752U 70025DA  22221.42161367  .00001005  00000-0  64798-3 0  9994","line2":"2 04752  99.8936 206.5713 0024358 340.3006  19.7215 14.05565356635555"},{"line1":"1 04753U 70025DB  22221.33169375  .00000633  00000-0  65463-3 0  9998","line2":"2 04753 100.0405 247.2637 0007044  21.6640 338.4807 13.80237844608317"},{"line1":"1 04754U 70025DC  22221.44640759  .00001656  00000-0  90891-3 0  9990","line2":"2 04754  99.6194  37.6947 0017175 288.1120  71.8179 14.13288507633609"},{"line1":"1 04755U 70025DD  22221.42958509  .00000720  00000-0  62847-3 0  9995","line2":"2 04755 100.1377 282.9662 0006540 109.6826 250.5035 13.89738945614697"},{"line1":"1 04756U 70025DE  22221.21955771  .00000032  00000-0  12602-3 0  9991","line2":"2 04756 100.2444 198.6034 0028123   2.1374 357.9874 13.48840851572259"},{"line1":"1 04757U 70025DF  22221.15766666  .00000231  00000-0  35366-3 0  9991","line2":"2 04757  99.5361 111.1918 0014464  82.4731 277.8053 13.62338016588921"},{"line1":"1 04759U 70025DH  22221.27474090  .00000307  00000-0  38719-3 0  9992","line2":"2 04759  99.9566 143.3192 0001533 324.8707 186.9123 13.72620653601537"},{"line1":"1  4764U 70025DJ  22221.45839754  .00000910  00000-0  52440-3 0  9997","line2":"2  4764  99.4974 149.5091 0046582 107.5828 253.0437 14.11367792626560"},{"line1":"1 04765U 70025DK  22221.35717874  .00003351  00000-0  77802-3 0  9996","line2":"2 04765  99.6196  56.2481 0064242  70.1568 290.6534 14.54549739701632"},{"line1":"1 04766U 70025DL  22221.24942909  .00000007  00000-0  76221-4 0  9994","line2":"2 04766  99.9726 329.0960 0008697 234.9825 154.6190 13.55468450585857"},{"line1":"1 04767U 70025DM  22221.30475992  .00000246  00000-0  32047-3 0  9997","line2":"2 04767 100.0397 247.2539 0052302 238.1016 136.4113 13.72247804609003"},{"line1":"1 04768U 70025DN  22221.32804535  .00000220  00000-0  30470-3 0  9999","line2":"2 04768 100.1194 163.5372 0031112 344.9118 166.9956 13.70193774604945"},{"line1":"1  4769U 70025DP  22221.61487145  .00004257  00000-0  83693-3 0  9995","line2":"2  4769  99.6115 106.9557 0045910 189.4616 170.5721 14.62629406666254"},{"line1":"1 04772U 70025DS  22221.36315286  .00000146  00000-0  39299-3 0  9993","line2":"2 04772  99.7705  84.1943 0187534  37.1821 138.0708 13.24804960515609"},{"line1":"1  4773U 70025DT  22221.50091035  .00000133  00000-0  25954-3 0  9992","line2":"2  4773 100.1223 218.5627 0031257 133.8050  17.9804 13.55345578577678"},{"line1":"1 04774U 70025DU  22221.22242619  .00000484  00000-0  53850-3 0  9993","line2":"2 04774  99.7098 301.1655 0045603 171.9687 210.8105 13.76421177596505"},{"line1":"1 04776U 70025DW  22221.39229476  .00000486  00000-0  40527-3 0  9998","line2":"2 04776 100.1248  12.2328 0019758 160.6477 227.1161 13.94106173542287"},{"line1":"1 04777U 70025DX  22221.44397095  .00000956  00000-0  88339-3 0  9993","line2":"2 04777  99.9946 218.9557 0007750 173.8627 351.2017 13.85417772611678"},{"line1":"1  4778U 70025DY  22221.85879924  .00000109  00000-0  22706-3 0  9991","line2":"2  4778 100.1293 240.3789 0034606 303.1951 181.7943 13.54807910581407"},{"line1":"1 04783U 70102A   22221.31819828  .00000002  00000-0  25596-4 0  9994","line2":"2 04783  74.0321 187.4047 0030264 157.1114 203.1362 13.74829373592658"},{"line1":"1 04784U 70102B   22221.40878307  .00000042  00000-0  64899-4 0  9995","line2":"2 04784  74.0292  97.4934 0025669  58.7001 120.6605 13.76751621595406"},{"line1":"1 04786U 70103A   22221.08762286 -.00000022  00000-0  00000-0 0  9999","line2":"2 04786  55.8740  73.1975 1337843 254.6889 298.6044  8.42041166589972"},{"line1":"1 04789U 70103B   22221.16617670 -.00000051  00000-0 -48244-3 0  9995","line2":"2 04789  51.5865 137.7937 1800512  63.0853  68.6925  9.06805883711966"},{"line1":"1 04790U 70103C   22221.45459878  .00000011  00000-0  22341-2 0  9996","line2":"2 04790  51.5981 295.0789 1784881 304.9446  39.6075  9.05046877708649"},{"line1":"1 04793U 70106A   22221.54602309 -.00000039  00000-0  30823-4 0  9998","line2":"2 04793 101.5535 284.0110 0031435 218.2072 250.1856 12.54006641364244"},{"line1":"1 04794U 70106B   22221.50610046 -.00000026  00000-0  10713-3 0  9993","line2":"2 04794 101.4525 269.2453 0036548 226.2039 269.0689 12.53241731755078"},{"line1":"1  4799U 70108A   22221.50424949  .00000005  00000-0  28305-4 0  9998","line2":"2  4799  74.0193 214.6984 0002806 109.2275  21.0323 13.76808080595440"},{"line1":"1 04800U 70108B   22221.25121587  .00000006  00000-0  28050-4 0  9993","line2":"2 04800  74.0220 124.5950 0008749 144.5544 215.6161 13.78739866598013"},{"line1":"1 04814U 70113B   22221.54655656  .00009137  00000-0  21685-3 0  9995","line2":"2 04814  81.1405 293.7248 0021913  89.6006 270.7747 15.41297192823433"},{"line1":"1 04818U 70025DZ  22221.50037110  .00000250  00000-0  71080-3 0  9997","line2":"2 04818  99.7716 222.0628 0264607 199.2917 328.1007 13.09226345495539"},{"line1":"1 04819U 70025EA  22221.36847266  .00001901  00000-0  96007-3 0  9993","line2":"2 04819 100.1074   5.4962 0040598 237.9306 121.7919 14.17312060643388"},{"line1":"1 04820U 70025EB  22221.32675146  .00006262  00000-0  20295-2 0  9997","line2":"2 04820  99.7031 348.6619 0022986  14.0529 346.1290 14.39216764641098"},{"line1":"1  4821U 70025EC  22221.82809413  .00000180  00000-0  31352-3 0  9999","line2":"2  4821 100.0656 209.0033 0010594 118.5902 359.6023 13.58086236585588"}]